DMSP 5D-3 F16 (USA 172) 
1 28054U 03048A   26119.00165929  .00000078  00000+0  64184-4 0  9996
2 28054  98.9927 142.4967 0005950 289.5193 126.6667 14.14477651162535
METEOSAT-9 (MSG-2)      
1 28912U 05049B   26118.92727677  .00000123  00000+0  00000+0 0  9999
2 28912   9.2532  54.6439 0000660   0.4747 181.2766  1.00276260  6506
DMSP 5D-3 F17 (USA 191) 
1 29522U 06050A   26118.95442053  .00000108  00000+0  78299-4 0  9998
2 29522  98.7394 126.5300 0009802 189.9854 170.1126 14.14983494  5462
FENGYUN 3A              
1 32958U 08026A   26118.84959874  .00000077  00000+0  57007-4 0  9991
2 32958  98.6859  60.6136 0007598 271.0413  88.9893 14.19560341928405
GOES 14                 
1 35491U 09033A   26118.88047659 -.00000061  00000+0  00000+0 0  9998
2 35491   1.5647  83.6072 0001837 318.6169 301.0200  1.00117208  6097
DMSP 5D-3 F18 (USA 210) 
1 35951U 09057A   26118.92229855  .00000279  00000+0  16745-3 0  9997
2 35951  98.9018  99.8064 0011804  35.9604 324.2361 14.14867698852625
EWS-G2 (GOES 15)        
1 36411U 10008A   26118.78817619  .00000019  00000+0  00000+0 0  9997
2 36411   1.1474  83.7442 0004157  23.6184  96.4002  1.00272950 59149
COMS 1                  
1 36744U 10032A   26118.87232988 -.00000345  00000+0  00000+0 0  9996
2 36744   4.6802  76.0147 0001129 322.7091 260.2975  1.00271704 50590
FENGYUN 3B              
1 37214U 10059A   26119.01275962 -.00000241  00000+0 -10104-3 0  9990
2 37214  98.9672 164.8082 0021559 328.8827  92.6420 14.14828729800477
SUOMI NPP               
1 37849U 11061A   26118.92961988  .00000082  00000+0  60078-4 0  9994
2 37849  98.7929  60.1500 0002790  98.5984 261.5508 14.19506523751455
METEOSAT-10 (MSG-3)     
1 38552U 12035B   26118.63307964 -.00000009  00000+0  00000+0 0  9998
2 38552   4.5569  61.2306 0002137 316.2681  67.1677  1.00268609 50362
METOP-B                 
1 38771U 12049A   26118.91553276  .00000110  00000+0  70180-4 0  9999
2 38771  98.6545 171.3880 0003447 119.3951 240.7571 14.21433894706266
INSAT-3D                
1 39216U 13038B   26118.94391874 -.00000341  00000+0  00000+0 0  9996
2 39216   1.8005  83.1321 0001499 288.7848 314.3279  1.00271172 46586
FENGYUN 3C              
1 39260U 13052A   26118.92545214  .00000088  00000+0  65836-4 0  9998
2 39260  98.4953  95.0719 0014953 160.7980 199.3761 14.15743200651593
METEOR-M 2              
1 40069U 14037A   26118.94269245 -.00000150  00000+0 -49301-4 0  9991
2 40069  98.5083  96.4342 0005716 168.0207 192.1108 14.21446489612324
HIMAWARI-8              
1 40267U 14060A   26118.94608542  .00000000  00000+0  00000+0 0  9994
2 40267   0.0148 260.4576 0000974 146.5788 291.1265  1.00267517 42262
FENGYUN 2G              
1 40367U 14090A   26118.86669652 -.00000304  00000+0  00000+0 0  9996
2 40367   5.5168  73.3978 0002763 143.3543  51.8926  1.00271968 41500
METEOSAT-11 (MSG-4)     
1 40732U 15034A   26118.92017007  .00000061  00000+0  00000+0 0  9998
2 40732   3.0787  71.3639 0001575 345.3208 140.9833  1.00264805  6724
ELEKTRO-L 2             
1 41105U 15074A   26118.70148703 -.00000118  00000+0  00000+0 0  9995
2 41105   6.5724  71.1199 0002275 260.5780 122.9927  1.00270893 38013
INSAT-3DR               
1 41752U 16054A   26118.93291013 -.00000080  00000+0  00000+0 0  9998
2 41752   0.1204  86.4316 0011385 194.9543 345.3520  1.00271923 35329
HIMAWARI-9              
1 41836U 16064A   26118.94617208 -.00000278  00000+0  00000+0 0  9990
2 41836   0.0446 107.4635 0000976 308.2062 282.6449  1.00273996 34714
GOES 16                 
1 41866U 16071A   26118.99310123 -.00000094  00000+0  00000+0 0  9998
2 41866   0.2183  85.3658 0001416 256.8538 127.5381  1.00271468 34615
FENGYUN 4A              
1 41882U 16077A   26118.94279207 -.00000359  00000+0  00000+0 0  9998
2 41882   2.2000  80.7764 0008023 140.9317  98.2710  1.00265782 34431
CYGFM05                 
1 41884U 16078A   26118.69904374  .00022781  00000+0  33411-3 0  9991
2 41884  34.9571 227.7454 0006956  43.3823 316.7448 15.54526862521045
CYGFM04                 
1 41885U 16078B   26118.62190670  .00028085  00000+0  35108-3 0  9999
2 41885  34.9325 198.2817 0006031  91.0160 269.1256 15.58781750521250
CYGFM02                 
1 41886U 16078C   26118.89819738  .00030237  00000+0  34470-3 0  9995
2 41886  34.9408 192.2453 0007123  94.6772 265.4767 15.61166904521454
CYGFM01                 
1 41887U 16078D   26118.64401243  .00023086  00000+0  33112-3 0  9993
2 41887  34.9402 229.5495 0006716  35.9119 324.2055 15.55132043520980
CYGFM08                 
1 41888U 16078E   26118.93947593  .00026590  00000+0  34888-3 0  9993
2 41888  34.9433 208.3883 0007914  72.4823 287.6766 15.57493300521283
CYGFM07                 
1 41890U 16078G   26118.90157904  .00026525  00000+0  34715-3 0  9999
2 41890  34.9448 197.0220 0006443  92.8175 267.3287 15.57573025521302
CYGFM03                 
1 41891U 16078H   26118.61613756  .00026485  00000+0  34679-3 0  9994
2 41891  34.9403 200.8699 0005669  75.8773 284.2581 15.57565538521238
FENGYUN 3D              
1 43010U 17072A   26118.95576266  .00000004  00000+0  23797-4 0  9994
2 43010  99.0093  92.4975 0001503 147.8827 212.2440 14.19728909438002
NOAA 20 (JPSS-1)        
1 43013U 17073A   26118.94313002  .00000067  00000+0  52666-4 0  9990
2 43013  98.7749  58.8494 0002069  69.0281 291.1117 14.19548138437480
GOES 17                 
1 43226U 18022A   26118.98978914 -.00000185  00000+0  00000+0 0  9996
2 43226   0.8133  86.3760 0000676 291.2213 106.1935  1.00271845 29939
FENGYUN 2H              
1 43491U 18050A   26118.86262317 -.00000131  00000+0  00000+0 0  9992
2 43491   2.9067  79.6279 0001553 157.5557   9.4710  1.00274502 28941
METOP-C                 
1 43689U 18087A   26118.93740705  .00000098  00000+0  64542-4 0  9998
2 43689  98.6676 179.4330 0000696  39.0513 321.0715 14.21512463387830
GEO-KOMPSAT-2A          
1 43823U 18100A   26118.73989929 -.00000348  00000+0  00000+0 0  9998
2 43823   0.0533  74.5291 0002132 353.9931 182.8087  1.00270305 27137
METEOR-M2 2             
1 44387U 19038A   26118.93161876  .00000167  00000+0  92183-4 0  9996
2 44387  98.9128 105.4959 0001821 123.7615 236.3737 14.24352121354283
ARKTIKA-M 1             
1 47719U 21016A   26118.14887370 -.00000091  00000+0  00000+0 0  9993
2 47719  63.2267  64.8413 7268792 269.7019  14.9377  2.00608233 37787
FENGYUN 3E              
1 49008U 21062A   26119.01569344 -.00000305  00000+0 -12301-3 0  9992
2 49008  98.7505 122.9712 0000926 185.0138 175.1029 14.19898592249606
GOES 18                 
1 51850U 22021A   26118.74848475  .00000000  00000+0  00000+0 0  9999
2 51850   0.0133  70.6789 0000698  21.8737 256.6118  1.00270784  6099
NOAA 21 (JPSS-2)        
1 54234U 22150A   26118.90687332  .00000053  00000+0  45740-4 0  9995
2 54234  98.7037  58.5303 0001687  16.5915 343.5316 14.19556196179556
METEOSAT-12 (MTG-I1)    
1 54743U 22170C   26118.84684977 -.00000012  00000+0  00000+0 0  9998
2 54743   0.7265  22.7343 0001109 341.8929 156.7068  1.00270201 12484
TIANMU-1 03             
1 55973U 23039A   26118.94137036  .00015681  00000+0  32460-3 0  9995
2 55973  97.5213 291.0423 0001680 267.9851  92.1205 15.45867646173228
TIANMU-1 04             
1 55974U 23039B   26118.94904212  .00016312  00000+0  33129-3 0  9999
2 55974  97.5150 290.2028 0002401 263.4741  96.6235 15.46415968173232
TIANMU-1 05             
1 55975U 23039C   26118.98467123  .00015177  00000+0  31490-3 0  9996
2 55975  97.5195 290.7199 0001559 309.4929  50.6182 15.45806713173218
TIANMU-1 06             
1 55976U 23039D   26118.94971726  .00016169  00000+0  32925-3 0  9998
2 55976  97.5204 291.2713 0001812 296.9449  63.1615 15.46341834173238
FENGYUN 3G              
1 56232U 23055A   26118.76438625  .00026865  00000+0  43554-3 0  9992
2 56232  49.9928 240.9234 0006067 332.5940  27.4706 15.52505824172328
METEOR-M2 3             
1 57166U 23091A   26118.98506222  .00000004  00000+0  20652-4 0  9994
2 57166  98.6120 174.9604 0003134 327.9062  32.1926 14.24042452147513
TIANMU-1 07             
1 57399U 23101A   26118.96821524  .00006351  00000+0  22611-3 0  9994
2 57399  97.2638 170.7765 0001179   4.0996 356.0254 15.29287765154129
TIANMU-1 08             
1 57400U 23101B   26118.93566965  .00005932  00000+0  21119-3 0  9995
2 57400  97.2626 170.5208 0002159 304.1074  55.9962 15.29316041154119
TIANMU-1 09             
1 57401U 23101C   26118.91937218  .00006502  00000+0  23118-3 0  9992
2 57401  97.2585 169.9478 0001658 354.8401   5.2822 15.29325397154111
TIANMU-1 10             
1 57402U 23101D   26118.95201601  .00006692  00000+0  23759-3 0  9998
2 57402  97.2663 170.9789 0002631 326.6388  33.4687 15.29360584154118
FENGYUN 3F              
1 57490U 23111A   26118.93022043  .00000061  00000+0  49306-4 0  9996
2 57490  98.6852 189.8516 0000935 114.8655 245.2619 14.19930139141870
ARKTIKA-M 2             
1 58584U 23198A   26110.92958556  .00000217  00000+0  00000+0 0  9990
2 58584  63.2192 160.7194 6953303 267.0904  18.4710  2.00586979 17173
TIANMU-1 11             
1 58645U 23205A   26118.96269731  .00005544  00000+0  21508-3 0  9997
2 58645  97.3481 141.3043 0009373 166.8023 193.3463 15.26477729130010
TIANMU-1 12             
1 58646U 23205B   26118.99720137  .00006115  00000+0  23738-3 0  9995
2 58646  97.3471 141.1048 0008250 149.2622 210.9102 15.26425202130000
TIANMU-1 13             
1 58647U 23205C   26118.96084559  .00005852  00000+0  22689-3 0  9995
2 58647  97.3499 141.3300 0008977 133.9265 226.2716 15.26478214129991
TIANMU-1 14             
1 58648U 23205D   26119.01183990  .00006270  00000+0  24304-3 0  9993
2 58648  97.3433 140.6035 0009615 138.0951 222.1025 15.26450852130005
TIANMU-1 19             
1 58660U 23208A   26118.94681563  .00009065  00000+0  30695-3 0  9995
2 58660  97.4445 235.0414 0006388 124.7103 235.4740 15.30798152129796
TIANMU-1 20             
1 58661U 23208B   26118.95756163  .00008918  00000+0  29099-3 0  9998
2 58661  97.4386 235.6367 0008364 133.3093 226.8847 15.31986849129889
TIANMU-1 21             
1 58662U 23208C   26118.95259667  .00010661  00000+0  32442-3 0  9990
2 58662  97.4444 238.1053 0008394 128.3280 231.8719 15.34163373130013
TIANMU-1 22             
1 58663U 23208D   26118.97831297  .00008155  00000+0  28043-3 0  9995
2 58663  97.4440 235.0485 0004804 141.0949 219.0638 15.30339698129805
TIANMU-1 15             
1 58700U 24004A   26118.94322181  .00006246  00000+0  24203-3 0  9999
2 58700  97.4674 305.1417 0007767 152.0711 208.0946 15.26490946128268
TIANMU-1 16             
1 58701U 24004B   26118.99104804  .00006367  00000+0  24642-3 0  9996
2 58701  97.4619 304.4778 0006173 151.9225 208.2348 15.26529749128271
TIANMU-1 17             
1 58702U 24004C   26118.97534743  .00006115  00000+0  23786-3 0  9993
2 58702  97.4647 304.9311 0005951 156.7068 203.4441 15.26377309128265
TIANMU-1 18             
1 58703U 24004D   26118.95949560  .00005791  00000+0  22470-3 0  9997
2 58703  97.4666 305.1413 0004820 148.2996 211.8534 15.26489717128266
INSAT-3DS               
1 58990U 24033A   26117.86494880 -.00000163  00000+0  00000+0 0  9996
2 58990   0.0947  86.8667 0001974 301.8659 220.5579  1.00270644 46562
METEOR-M2 4             
1 59051U 24039A   26118.94393492  .00000021  00000+0  28987-4 0  9999
2 59051  98.6978  78.8712 0006334 320.2358  39.8355 14.22424295112261
GOES 19                 
1 60133U 24119A   26118.90335668 -.00000252  00000+0  00000+0 0  9996
2 60133   0.0041 208.8136 0000650 237.6736  20.3980  1.00272520  6471
FENGYUN 3H              
1 65815U 25219A   26118.85552710  .00000057  00000+0  47423-4 0  9990
2 65815  98.6743  60.5915 0000892 107.7036 252.4238 14.19944471 30387
